{
    "links": {
        "self": "http://www.neowsapp.com/rest/v1/neo/3558376?api_key=iIulBulltgU6a56xZRHN4H3l9WmuAYTsLGpBGhQ2"
    },
    "id": "3558376",
    "neo_reference_id": "3558376",
    "name": "(2011 EM11)",
    "designation": "2011 EM11",
    "nasa_jpl_url": "http://ssd.jpl.nasa.gov/sbdb.cgi?sstr=3558376",
    "absolute_magnitude_h": 24.6,
    "estimated_diameter": {
        "kilometers": {
            "estimated_diameter_min": 0.0319561887,
            "estimated_diameter_max": 0.0714562102
        },
        "meters": {
            "estimated_diameter_min": 31.9561886721,
            "estimated_diameter_max": 71.4562101727
        },
        "miles": {
            "estimated_diameter_min": 0.0198566489,
            "estimated_diameter_max": 0.0444008168
        },
        "feet": {
            "estimated_diameter_min": 104.8431420431,
            "estimated_diameter_max": 234.436392583
        }
    },
    "is_potentially_hazardous_asteroid": false,
    "close_approach_data": [
        {
            "close_approach_date": "2007-02-14",
            "close_approach_date_full": "2007-Feb-14 08:48",
            "epoch_date_close_approach": 1171442880000,
            "relative_velocity": {
                "kilometers_per_second": "15.6817852559",
                "kilometers_per_hour": "56454.4269211198",
                "miles_per_hour": "35078.585438848"
            },
            "miss_distance": {
                "astronomical": "0.411750493",
                "lunar": "160.170941777",
                "kilometers": "61596996.72424991",
                "miles": "38274598.947712358"
            },
            "orbiting_body": "Earth"
        },
        {
            "close_approach_date": "2009-02-24",
            "close_approach_date_full": "2009-Feb-24 22:55",
            "epoch_date_close_approach": 1235516100000,
            "relative_velocity": {
                "kilometers_per_second": "10.3763375401",
                "kilometers_per_hour": "37354.8151444446",
                "miles_per_hour": "23210.8294435023"
            },
            "miss_distance": {
                "astronomical": "0.216229407",
                "lunar": "84.113239323",
                "kilometers": "32347458.71856309",
                "miles": "20099778.808587042"
            },
            "orbiting_body": "Earth"
        },
        {
            "close_approach_date": "2011-03-12",
            "close_approach_date_full": "2011-Mar-12 04:30",
            "epoch_date_close_approach": 1299904200000,
            "relative_velocity": {
                "kilometers_per_second": "6.5433232724",
                "kilometers_per_hour": "23555.963780773",
                "miles_per_hour": "14636.7598281142"
            },
            "miss_distance": {
                "astronomical": "0.066962358",
                "lunar": "26.048357262",
                "kilometers": "10017426.12697746",
                "miles": "6224539.959550548"
            },
            "orbiting_body": "Earth"
        },
        {
            "close_approach_date": "2013-04-02",
            "close_approach_date_full": "2013-Apr-02 17:07",
            "epoch_date_close_approach": 1364922420000,
            "relative_velocity": {
                "kilometers_per_second": "8.112170965",
                "kilometers_per_hour": "29203.8154738701",
                "miles_per_hour": "18146.1152315278"
            },
            "miss_distance": {
                "astronomical": "0.1928742873",
                "lunar": "75.0280977597",
                "kilometers": "28853582.557848051",
                "miles": "17928784.8326470638"
            },
            "orbiting_body": "Earth"
        },
        {
            "close_approach_date": "2015-04-23",
            "close_approach_date_full": "2015-Apr-23 13:56",
            "epoch_date_close_approach": 1429797360000,
            "relative_velocity": {
                "kilometers_per_second": "13.4996122779",
                "kilometers_per_hour": "48598.604200472",
                "miles_per_hour": "30197.2827044544"
            },
            "miss_distance": {
                "astronomical": "0.3768408855",
                "lunar": "146.5911044595",
                "kilometers": "56374593.799713885",
                "miles": "35029548.245406213"
            },
            "orbiting_body": "Earth"
        }
    ],
    "orbital_data": {
        "orbit_id": "14",
        "orbit_determination_date": "2017-04-06 08:54:16",
        "first_observation_date": "2011-03-04",
        "last_observation_date": "2011-04-02",
        "data_arc_in_days": 29,
        "observations_used": 67,
        "orbit_uncertainty": "7",
        "minimum_orbit_intersection": ".0669833",
        "jupiter_tisserand_invariant": "4.274",
        "epoch_osculation": "2459000.5",
        "eccentricity": ".3418172540218912",
        "semi_major_axis": "1.603830132603551",
        "inclination": "9.477308610727862",
        "ascending_node_longitude": "165.0670702337706",
        "orbital_period": "741.8839573643978",
        "perihelion_distance": "1.05561332075944",
        "perihelion_argument": "14.22497629086259",
        "aphelion_distance": "2.152046944447663",
        "perihelion_time": "2459348.869123102821",
        "mean_anomaly": "190.9535028058096",
        "mean_motion": ".4852510913956528",
        "equinox": "J2000",
        "orbit_class": {
            "orbit_class_type": "AMO",
            "orbit_class_description": "Near-Earth asteroid orbits similar to that of 1221 Amor",
            "orbit_class_range": "1.017 AU < q (perihelion) < 1.3 AU"
        }
    },
    "is_sentry_object": false
}